[{"OBJECT_NAME":"BUCCANEER MM","OBJECT_ID":"2025-052AM","EPOCH":"2026-03-09T22:25:46.269120","MEAN_MOTION":14.94080951,"ECCENTRICITY":0.00039773,"INCLINATION":97.6989,"RA_OF_ASC_NODE":321.9491,"ARG_OF_PERICENTER":161.9633,"MEAN_ANOMALY":198.1729,"EPHEMERIS_TYPE":0,"CLASSIFICATION_TYPE":"U","NORAD_CAT_ID":63245,"ELEMENT_SET_NO":999,"REV_AT_EPOCH":5377,"BSTAR":0.0003752761,"MEAN_MOTION_DOT":3.953e-5,"MEAN_MOTION_DDOT":0},{"OBJECT_NAME":"HUBBLE 7","OBJECT_ID":"2025-135BS","EPOCH":"2026-03-09T22:34:38.564832","MEAN_MOTION":14.93574527,"ECCENTRICITY":0.00025753,"INCLINATION":97.7624,"RA_OF_ASC_NODE":184.774,"ARG_OF_PERICENTER":333.1877,"MEAN_ANOMALY":26.921,"EPHEMERIS_TYPE":0,"CLASSIFICATION_TYPE":"U","NORAD_CAT_ID":64592,"ELEMENT_SET_NO":999,"REV_AT_EPOCH":3909,"BSTAR":0.00045783206,"MEAN_MOTION_DOT":4.773e-5,"MEAN_MOTION_DDOT":0}]
